{
    "links": {
        "self": "http://www.neowsapp.com/rest/v1/neo/3467183?api_key=iIulBulltgU6a56xZRHN4H3l9WmuAYTsLGpBGhQ2"
    },
    "id": "3467183",
    "neo_reference_id": "3467183",
    "name": "(2009 SJ)",
    "designation": "2009 SJ",
    "nasa_jpl_url": "http://ssd.jpl.nasa.gov/sbdb.cgi?sstr=3467183",
    "absolute_magnitude_h": 25.8,
    "estimated_diameter": {
        "kilometers": {
            "estimated_diameter_min": 0.0183888672,
            "estimated_diameter_max": 0.0411187571
        },
        "meters": {
            "estimated_diameter_min": 18.388867207,
            "estimated_diameter_max": 41.1187571041
        },
        "miles": {
            "estimated_diameter_min": 0.0114263088,
            "estimated_diameter_max": 0.0255500032
        },
        "feet": {
            "estimated_diameter_min": 60.3309310875,
            "estimated_diameter_max": 134.9040630575
        }
    },
    "is_potentially_hazardous_asteroid": false,
    "close_approach_data": [
        {
            "close_approach_date": "1944-02-16",
            "close_approach_date_full": "1944-Feb-16 11:52",
            "epoch_date_close_approach": -816523680000,
            "relative_velocity": {
                "kilometers_per_second": "20.6008282346",
                "kilometers_per_hour": "74162.9816445964",
                "miles_per_hour": "46081.9926779993"
            },
            "miss_distance": {
                "astronomical": "0.4875969754",
                "lunar": "189.6752234306",
                "kilometers": "72943468.938282398",
                "miles": "45324969.8514691724"
            },
            "orbiting_body": "Earth"
        },
        {
            "close_approach_date": "1972-09-01",
            "close_approach_date_full": "1972-Sep-01 14:53",
            "epoch_date_close_approach": 84207180000,
            "relative_velocity": {
                "kilometers_per_second": "18.4410139726",
                "kilometers_per_hour": "66387.6503014615",
                "miles_per_hour": "41250.704155372"
            },
            "miss_distance": {
                "astronomical": "0.3914485609",
                "lunar": "152.2734901901",
                "kilometers": "58559870.925205283",
                "miles": "36387416.4859995854"
            },
            "orbiting_body": "Earth"
        },
        {
            "close_approach_date": "1977-01-31",
            "close_approach_date_full": "1977-Jan-31 03:13",
            "epoch_date_close_approach": 223528380000,
            "relative_velocity": {
                "kilometers_per_second": "7.8187902312",
                "kilometers_per_hour": "28147.6448324046",
                "miles_per_hour": "17489.8518682239"
            },
            "miss_distance": {
                "astronomical": "0.1447005053",
                "lunar": "56.2884965617",
                "kilometers": "21646887.380803711",
                "miles": "13450752.0987687718"
            },
            "orbiting_body": "Earth"
        },
        {
            "close_approach_date": "2009-09-23",
            "close_approach_date_full": "2009-Sep-23 21:31",
            "epoch_date_close_approach": 1253741460000,
            "relative_velocity": {
                "kilometers_per_second": "8.3970172173",
                "kilometers_per_hour": "30229.2619824222",
                "miles_per_hour": "18783.2878134667"
            },
            "miss_distance": {
                "astronomical": "0.0219099378",
                "lunar": "8.5229658042",
                "kilometers": "3277680.026712486",
                "miles": "2036655.9276088668"
            },
            "orbiting_body": "Earth"
        },
        {
            "close_approach_date": "2010-03-06",
            "close_approach_date_full": "2010-Mar-06 05:14",
            "epoch_date_close_approach": 1267852440000,
            "relative_velocity": {
                "kilometers_per_second": "6.9862758552",
                "kilometers_per_hour": "25150.5930786939",
                "miles_per_hour": "15627.6004604806"
            },
            "miss_distance": {
                "astronomical": "0.3116945663",
                "lunar": "121.2491862907",
                "kilometers": "46628843.209053781",
                "miles": "28973819.6362369378"
            },
            "orbiting_body": "Earth"
        }
    ],
    "orbital_data": {
        "orbit_id": "8",
        "orbit_determination_date": "2017-04-06 09:00:03",
        "first_observation_date": "2009-09-17",
        "last_observation_date": "2009-09-21",
        "data_arc_in_days": 4,
        "observations_used": 13,
        "orbit_uncertainty": "8",
        "minimum_orbit_intersection": ".0197823",
        "jupiter_tisserand_invariant": "5.135",
        "epoch_osculation": "2455092.5",
        "eccentricity": ".2649513223366722",
        "semi_major_axis": "1.23603406413841",
        "inclination": "10.16626449025119",
        "ascending_node_longitude": "176.9922375051834",
        "orbital_period": "501.9310777755385",
        "perihelion_distance": ".908545204391767",
        "perihelion_argument": "245.1402232851558",
        "aphelion_distance": "1.563522923885053",
        "perihelion_time": "2455149.680323424035",
        "mean_anomaly": "318.9885596965206",
        "mean_motion": ".7172299463811852",
        "equinox": "J2000",
        "orbit_class": {
            "orbit_class_type": "APO",
            "orbit_class_description": "Near-Earth asteroid orbits which cross the Earth’s orbit similar to that of 1862 Apollo",
            "orbit_class_range": "a (semi-major axis) > 1.0 AU; q (perihelion) < 1.017 AU"
        }
    },
    "is_sentry_object": false
}